{"spkid": "50789688", "covariance": {"labels": ["e", "q", "tp", "node", "peri", "i"], "data": [["3.345093630651702E-14", "-6.348653442890109E-14", "-6.317464164376329E-12", "2.193349552514105E-12", "-1.331893641307742E-11", "5.863438673621194E-13"], ["-6.348653442890109E-14", "1.206033802252555E-13", "1.192358855858296E-11", "-4.314238288926967E-12", "2.533385284253414E-11", "-1.11230038400989E-12"], ["-6.317464164376329E-12", "1.192358855858296E-11", "1.326174671728578E-9", "-2.569875070327854E-10", "2.512051014783345E-9", "-1.120209603520033E-10"], ["2.193349552514105E-12", "-4.314238288926967E-12", "-2.569875070327854E-10", "3.736789066145503E-9", "-4.179786983657972E-9", "4.221998133899694E-10"], ["-1.331893641307742E-11", "2.533385284253414E-11", "2.512051014783345E-9", "-4.179786983657972E-9", "8.525074021396912E-9", "-6.126905898128718E-10"], ["5.863438673621194E-13", "-1.11230038400989E-12", "-1.120209603520033E-10", "4.221998133899694E-10", "-6.126905898128718E-10", "8.616280575975609E-11"]], "elements": [{"label": "e", "name": "e", "sigma": 1.82895971269236e-07, "title": "eccentricity", "value": ".5748136463534821", "units": null}, {"name": "q", "sigma": 3.47279973832721e-07, "value": ".9056797581725136", "title": "perihelion distance", "units": "au", "label": "q"}, {"label": "tp", "units": "TDB", "title": "time of perihelion passage", "value": "2458041.414344337476", "sigma": 3.64166812289173e-05, "name": "tp"}, {"units": "deg", "title": "longitude of the ascending node", "value": "215.2473653922877", "sigma": 6.11292815772074e-05, "name": "om", "label": "node"}, {"label": "peri", "name": "w", "sigma": 9.23313274105648e-05, "title": "argument of perihelion", "value": "148.0080744315114", "units": "deg"}, {"label": "i", "name": "i", "sigma": 9.28239224336895e-06, "units": "deg", "title": "inclination", "value": "6.212861593583835"}], "epoch": "2457480.5"}, "elements": [{"label": "e", "sigma": "1.8365E-7", "name": "e", "value": ".5755634431892623", "title": "eccentricity", "units": null}, {"label": "a", "title": "semi-major axis", "value": "2.129078383529197", "units": "au", "sigma": "9.611E-8", "name": "a"}, {"sigma": "3.5159E-7", "name": "q", "units": "au", "title": "perihelion distance", "value": ".9036586982853033", "label": "q"}, {"sigma": "9.3285E-6", "name": "i", "units": "deg", "title": "inclination; angle with respect to x-y ecliptic plane", "value": "6.228280464075737", "label": "i"}, {"name": "om", "sigma": "6.0912E-5", "title": "longitude of the ascending node", "value": "215.1537052782134", "units": "deg", "label": "node"}, {"label": "peri", "name": "w", "sigma": "9.1748E-5", "title": "argument of perihelion", "value": "148.1649714961163", "units": "deg"}, {"name": "ma", "sigma": "5.8356E-5", "units": "deg", "title": "mean anomaly", "value": "282.3483714696177", "label": "M"}, {"sigma": ".00020049", "name": "tp", "title": "time of perihelion passage", "value": "2461445.256351273051", "units": "TDB", "label": "tp"}, {"label": "period", "value": "1134.712666377925", "title": "sidereal orbital period", "units": "d", "name": "per", "sigma": "7.6834E-5"}, {"label": "n", "units": "deg/d", "value": ".3172609336856552", "title": "mean motion", "name": "n", "sigma": "2.1482E-8"}, {"label": "Q", "value": "3.35449806877309", "title": "aphelion distance", "units": "au", "name": "ad", "sigma": "1.5143E-7"}], "epoch": "2461200.5"}